IRIDIUM 63              
1 25286U 98021B   25134.88390277  .00000433  00000+0  14100-3 0  9990
2 25286  86.3955  96.1033 0002404  83.8854 276.2617 14.36520139419064
IRIDIUM 69              
1 25319U 98026A   25134.85969626  .00000445  00000+0  13235-3 0  9990
2 25319  86.3945 109.5071 0004321 111.0524 249.1138 14.40935852418264
IRIDIUM 71              
1 25320U 98026B   25134.87097388  .00000465  00000+0  13813-3 0  9995
2 25320  86.3944 104.1975 0002611 138.7766 221.3631 14.41130699418798
IRIDIUM 73              
1 25344U 98032C   25134.83802881  .00000646  00000+0  15607-3 0  9990
2 25344  86.4423  60.9774 0002981  90.4235 269.7312 14.51678092425726
IRIDIUM 82              
1 25467U 98051A   25134.44244608  .00029537  00000+0  87688-3 0  9999
2 25467  86.3651 126.3102 0091238  66.0488 295.0282 15.30527945418793
